{
  "type": "FeatureCollection",
  "features": [
    {
      "type": "Feature",
      "properties": {
        "norad_id": 32088,
        "name": "FENGYUN 1C DEB",
        "group": "fengyun-1c-debris",
        "lat": 38.542862859920014,
        "lon": -158.90133473085814,
        "alt_km": 888.5921286698958,
        "timestamp": "2025-12-11T10:53:16.172920+00:00",
        "meta_object_name": "FENGYUN 1C DEB",
        "meta_object_id": "1999-025CQE",
        "meta_epoch": "2025-12-10T09:20:21.764256",
        "meta_mean_motion": 13.25167395,
        "meta_eccentricity": 0.04614879,
        "meta_inclination": 102.3999,
        "meta_ra_of_asc_node": 209.9224,
        "meta_arg_of_pericenter": 2.0508,
        "meta_mean_anomaly": 358.2365,
        "meta_ephemeris_type": 0,
        "meta_classification_type": "U",
        "meta_norad_cat_id": 32088,
        "meta_element_set_no": 999,
        "meta_rev_at_epoch": 59813,
        "meta_bstar": 0.0045517197,
        "meta_mean_motion_dot": 3.447e-05,
        "meta_mean_motion_ddot": 0,
        "tle_line1": "1 32088U 99025CQE 25344.38914079  .00003447  00000+0  45517-2 0  9996",
        "tle_line2": "2 32088 102.3999 209.9224 0461487   2.0508 358.2365 13.25167395598139"
      },
      "geometry": {
        "type": "Point",
        "coordinates": [
          -158.90133473085814,
          38.542862859920014
        ]
      }
    },
    {
      "type": "Feature",
      "properties": {
        "norad_id": 32089,
        "name": "FENGYUN 1C DEB",
        "group": "fengyun-1c-debris",
        "lat": 77.2977947299084,
        "lon": -51.43894071560329,
        "alt_km": 782.3789324444397,
        "timestamp": "2025-12-11T10:53:16.172934+00:00",
        "meta_object_name": "FENGYUN 1C DEB",
        "meta_object_id": "1999-025CQF",
        "meta_epoch": "2025-12-07T06:18:49.554720",
        "meta_mean_motion": 14.14051186,
        "meta_eccentricity": 0.01122042,
        "meta_inclination": 98.6543,
        "meta_ra_of_asc_node": 347.0104,
        "meta_arg_of_pericenter": 139.5963,
        "meta_mean_anomaly": 221.3612,
        "meta_ephemeris_type": 0,
        "meta_classification_type": "U",
        "meta_norad_cat_id": 32089,
        "meta_element_set_no": 999,
        "meta_rev_at_epoch": 63138,
        "meta_bstar": 0.00086316915,
        "meta_mean_motion_dot": 1.702e-05,
        "meta_mean_motion_ddot": 0,
        "tle_line1": "1 32089U 99025CQF 25341.26307355  .00001702  00000+0  86317-3 0  9990",
        "tle_line2": "2 32089  98.6543 347.0104 0112204 139.5963 221.3612 14.14051186631383"
      },
      "geometry": {
        "type": "Point",
        "coordinates": [
          -51.43894071560329,
          77.2977947299084
        ]
      }
    },
    {
      "type": "Feature",
      "properties": {
        "norad_id": 32093,
        "name": "FENGYUN 1C DEB",
        "group": "fengyun-1c-debris",
        "lat": -50.110364870681835,
        "lon": 7.409250764564077,
        "alt_km": 806.7593287448881,
        "timestamp": "2025-12-11T10:53:16.172944+00:00",
        "meta_object_name": "FENGYUN 1C DEB",
        "meta_object_id": "1999-025CQK",
        "meta_epoch": "2025-12-11T01:27:41.673600",
        "meta_mean_motion": 14.37599237,
        "meta_eccentricity": 0.0079478,
        "meta_inclination": 98.9197,
        "meta_ra_of_asc_node": 197.8321,
        "meta_arg_of_pericenter": 358.4978,
        "meta_mean_anomaly": 1.5957,
        "meta_ephemeris_type": 0,
        "meta_classification_type": "U",
        "meta_norad_cat_id": 32093,
        "meta_element_set_no": 999,
        "meta_rev_at_epoch": 96493,
        "meta_bstar": 0.00061076,
        "meta_mean_motion_dot": 1.852e-05,
        "meta_mean_motion_ddot": 0,
        "tle_line1": "1 32093U 99025CQK 25345.06089900  .00001852  00000+0  61076-3 0  9991",
        "tle_line2": "2 32093  98.9197 197.8321 0079478 358.4978   1.5957 14.37599237964930"
      },
      "geometry": {
        "type": "Point",
        "coordinates": [
          7.409250764564077,
          -50.110364870681835
        ]
      }
    },
    {
      "type": "Feature",
      "properties": {
        "norad_id": 32094,
        "name": "FENGYUN 1C DEB",
        "group": "fengyun-1c-debris",
        "lat": 37.09384848417406,
        "lon": 162.58434146982393,
        "alt_km": 870.0005475870666,
        "timestamp": "2025-12-11T10:53:16.172954+00:00",
        "meta_object_name": "FENGYUN 1C DEB",
        "meta_object_id": "1999-025CQL",
        "meta_epoch": "2025-12-10T22:17:48.518592",
        "meta_mean_motion": 14.1072297,
        "meta_eccentricity": 0.0034085,
        "meta_inclination": 98.7446,
        "meta_ra_of_asc_node": 335.3907,
        "meta_arg_of_pericenter": 273.8438,
        "meta_mean_anomaly": 85.8836,
        "meta_ephemeris_type": 0,
        "meta_classification_type": "U",
        "meta_norad_cat_id": 32094,
        "meta_element_set_no": 999,
        "meta_rev_at_epoch": 94339,
        "meta_bstar": 0.00055097,
        "meta_mean_motion_dot": 9.47e-06,
        "meta_mean_motion_ddot": 0,
        "tle_line1": "1 32094U 99025CQL 25344.92903378  .00000947  00000+0  55097-3 0  9990",
        "tle_line2": "2 32094  98.7446 335.3907 0034085 273.8438  85.8836 14.10722970943392"
      },
      "geometry": {
        "type": "Point",
        "coordinates": [
          162.58434146982393,
          37.09384848417406
        ]
      }
    },
    {
      "type": "Feature",
      "properties": {
        "norad_id": 32095,
        "name": "FENGYUN 1C DEB",
        "group": "fengyun-1c-debris",
        "lat": -68.41559654450866,
        "lon": 23.71411991910508,
        "alt_km": 901.4747635553131,
        "timestamp": "2025-12-11T10:53:16.172964+00:00",
        "meta_object_name": "FENGYUN 1C DEB",
        "meta_object_id": "1999-025CQM",
        "meta_epoch": "2025-12-10T18:15:48.775680",
        "meta_mean_motion": 14.1603598,
        "meta_eccentricity": 0.007925,
        "meta_inclination": 98.6416,
        "meta_ra_of_asc_node": 0.4354,
        "meta_arg_of_pericenter": 97.7684,
        "meta_mean_anomaly": 263.2497,
        "meta_ephemeris_type": 0,
        "meta_classification_type": "U",
        "meta_norad_cat_id": 32095,
        "meta_element_set_no": 999,
        "meta_rev_at_epoch": 94789,
        "meta_bstar": 0.00038358282,
        "meta_mean_motion_dot": 7.39e-06,
        "meta_mean_motion_ddot": 0,
        "tle_line1": "1 32095U 99025CQM 25344.76098120  .00000739  00000+0  38358-3 0  9993",
        "tle_line2": "2 32095  98.6416   0.4354 0079250  97.7684 263.2497 14.16035980947892"
      },
      "geometry": {
        "type": "Point",
        "coordinates": [
          23.71411991910508,
          -68.41559654450866
        ]
      }
    },
    {
      "type": "Feature",
      "properties": {
        "norad_id": 32096,
        "name": "FENGYUN 1C DEB",
        "group": "fengyun-1c-debris",
        "lat": -21.417810292091698,
        "lon": -169.11747700819527,
        "alt_km": 880.4109479195249,
        "timestamp": "2025-12-11T10:53:16.172977+00:00",
        "meta_object_name": "FENGYUN 1C DEB",
        "meta_object_id": "1999-025CQN",
        "meta_epoch": "2025-12-10T01:06:43.590240",
        "meta_mean_motion": 13.90175975,
        "meta_eccentricity": 0.01346209,
        "meta_inclination": 99.0744,
        "meta_ra_of_asc_node": 13.1034,
        "meta_arg_of_pericenter": 147.1989,
        "meta_mean_anomaly": 213.7617,
        "meta_ephemeris_type": 0,
        "meta_classification_type": "U",
        "meta_norad_cat_id": 32096,
        "meta_element_set_no": 999,
        "meta_rev_at_epoch": 92824,
        "meta_bstar": 0.0015535076,
        "meta_mean_motion_dot": 2.025e-05,
        "meta_mean_motion_ddot": 0,
        "tle_line1": "1 32096U 99025CQN 25344.04633785  .00002025  00000+0  15535-2 0  9998",
        "tle_line2": "2 32096  99.0744  13.1034 0134620 147.1989 213.7617 13.90175975928241"
      },
      "geometry": {
        "type": "Point",
        "coordinates": [
          -169.11747700819527,
          -21.417810292091698
        ]
      }
    },
    {
      "type": "Feature",
      "properties": {
        "norad_id": 32098,
        "name": "FENGYUN 1C DEB",
        "group": "fengyun-1c-debris",
        "lat": 76.38216748295652,
        "lon": -163.34404377279193,
        "alt_km": 687.0105852767128,
        "timestamp": "2025-12-11T10:53:16.172987+00:00",
        "meta_object_name": "FENGYUN 1C DEB",
        "meta_object_id": "1999-025CQQ",
        "meta_epoch": "2025-12-07T16:48:26.372736",
        "meta_mean_motion": 14.20247103,
        "meta_eccentricity": 0.01956961,
        "meta_inclination": 98.6122,
        "meta_ra_of_asc_node": 334.2744,
        "meta_arg_of_pericenter": 134.3457,
        "meta_mean_anomaly": 227.3945,
        "meta_ephemeris_type": 0,
        "meta_classification_type": "U",
        "meta_norad_cat_id": 32098,
        "meta_element_set_no": 999,
        "meta_rev_at_epoch": 64156,
        "meta_bstar": 0.00042642559,
        "meta_mean_motion_dot": 1.061e-05,
        "meta_mean_motion_ddot": 0,
        "tle_line1": "1 32098U 99025CQQ 25341.70030524  .00001061  00000+0  42643-3 0  9992",
        "tle_line2": "2 32098  98.6122 334.2744 0195696 134.3457 227.3945 14.20247103641560"
      },
      "geometry": {
        "type": "Point",
        "coordinates": [
          -163.34404377279193,
          76.38216748295652
        ]
      }
    }
  ]
}